{"type": "FeatureCollection", "features": [ {"type": "Feature", "properties": {"norad_id": 33153, "name": "INTELSAT 25 (IS-25)", "group": "intelsat", "lat": 0.9543210819208868, "lon": -122.83580448720967, "alt_km": 35768.847365377325, "timestamp": "2025-12-25T11:37:44.089364+00:00", "meta": {"OBJECT_NAME": "INTELSAT 25 (IS-25)", "OBJECT_ID": "2008-034A", "EPOCH": "2025-12-24T23:13:20.404128", "MEAN_MOTION": 1.00272025, "ECCENTRICITY": 0.0004905, "INCLINATION": 2.2573, "RA_OF_ASC_NODE": 82.5174, "ARG_OF_PERICENTER": 189.2444, "MEAN_ANOMALY": 138.8126, "EPHEMERIS_TYPE": 0, "CLASSIFICATION_TYPE": "U", "NORAD_CAT_ID": 33153, "ELEMENT_SET_NO": 999, "REV_AT_EPOCH": 6394, "BSTAR": 0, "MEAN_MOTION_DOT": -2.03e-06, "MEAN_MOTION_DDOT": 0}, "tle": {"line1": "1 33153U 08034A   25358.96759727 -.00000203  00000+0  00000+0 0  9999", "line2": "2 33153   2.2573  82.5174 0004905 189.2444 138.8126  1.00272025 63943"}}, "geometry": {"type": "Point", "coordinates": [-122.83580448720967, 0.9543210819208868]}}, {"type": "Feature", "properties": {"norad_id": 33376, "name": "GALAXY 19 (G-19)", "group": "intelsat", "lat": -0.02750348181706758, "lon": 171.63868409556608, "alt_km": 35789.671890463265, "timestamp": "2025-12-25T11:37:44.089376+00:00", "meta": {"OBJECT_NAME": "GALAXY 19 (G-19)", "OBJECT_ID": "2008-045A", "EPOCH": "2025-12-25T02:40:40.473120", "MEAN_MOTION": 1.00272049, "ECCENTRICITY": 0.0002699, "INCLINATION": 0.0416, "RA_OF_ASC_NODE": 264.7487, "ARG_OF_PERICENTER": 15.5414, "MEAN_ANOMALY": 116.7517, "EPHEMERIS_TYPE": 0, "CLASSIFICATION_TYPE": "U", "NORAD_CAT_ID": 33376, "ELEMENT_SET_NO": 999, "REV_AT_EPOCH": 6315, "BSTAR": 0, "MEAN_MOTION_DOT": -1.18e-06, "MEAN_MOTION_DDOT": 0}, "tle": {"line1": "1 33376U 08045A   25359.11157955 -.00000118  00000+0  00000+0 0  9996", "line2": "2 33376   0.0416 264.7487 0002699  15.5414 116.7517  1.00272049 63157"}}, "geometry": {"type": "Point", "coordinates": [171.63868409556608, -0.02750348181706758]}}, {"type": "Feature", "properties": {"norad_id": 35493, "name": "FM-5", "group": "intelsat", "lat": -0.011053007218026328, "lon": -177.47499357768478, "alt_km": 35783.37290681252, "timestamp": "2025-12-25T11:37:44.089388+00:00", "meta": {"OBJECT_NAME": "FM-5", "OBJECT_ID": "2009-034A", "EPOCH": "2025-12-25T03:12:43.262784", "MEAN_MOTION": 1.00269775, "ECCENTRICITY": 8.51e-05, "INCLINATION": 0.0175, "RA_OF_ASC_NODE": 297.305, "ARG_OF_PERICENTER": 222.6055, "MEAN_ANOMALY": 256.0209, "EPHEMERIS_TYPE": 0, "CLASSIFICATION_TYPE": "U", "NORAD_CAT_ID": 35493, "ELEMENT_SET_NO": 999, "REV_AT_EPOCH": 4489, "BSTAR": 0, "MEAN_MOTION_DOT": -1.79e-06, "MEAN_MOTION_DDOT": 0}, "tle": {"line1": "1 35493U 09034A   25359.13383406 -.00000179  00000+0  00000+0 0  9998", "line2": "2 35493   0.0175 297.3050 0000851 222.6055 256.0209  1.00269775 44897"}}, "geometry": {"type": "Point", "coordinates": [-177.47499357768478, -0.011053007218026328]}}, {"type": "Feature", "properties": {"norad_id": 36097, "name": "INTELSAT 14 (IS-14)", "group": "intelsat", "lat": -0.018047678684324265, "lon": -136.37889177972008, "alt_km": 35781.75645576922, "timestamp": "2025-12-25T11:37:44.089400+00:00", "meta": {"OBJECT_NAME": "INTELSAT 14 (IS-14)", "OBJECT_ID": "2009-064A", "EPOCH": "2025-12-24T11:10:22.140192", "MEAN_MOTION": 1.00269035, "ECCENTRICITY": 0.0002637, "INCLINATION": 0.013, "RA_OF_ASC_NODE": 11.8022, "ARG_OF_PERICENTER": 274.0942, "MEAN_ANOMALY": 289.9229, "EPHEMERIS_TYPE": 0, "CLASSIFICATION_TYPE": "U", "NORAD_CAT_ID": 36097, "ELEMENT_SET_NO": 999, "REV_AT_EPOCH": 5885, "BSTAR": 0, "MEAN_MOTION_DOT": -2.53e-06, "MEAN_MOTION_DDOT": 0}, "tle": {"line1": "1 36097U 09064A   25358.46553403 -.00000253  00000+0  00000+0 0  9996", "line2": "2 36097   0.0130  11.8022 0002637 274.0942 289.9229  1.00269035 58854"}}, "geometry": {"type": "Point", "coordinates": [-136.37889177972008, -0.018047678684324265]}}, {"type": "Feature", "properties": {"norad_id": 36106, "name": "INTELSAT 15 (IS-15)", "group": "intelsat", "lat": -0.017637993064837865, "lon": -6.148527935530059, "alt_km": 35782.70034656706, "timestamp": "2025-12-25T11:37:44.089412+00:00", "meta": {"OBJECT_NAME": "INTELSAT 15 (IS-15)", "OBJECT_ID": "2009-067A", "EPOCH": "2025-12-24T23:46:32.223936", "MEAN_MOTION": 1.00270584, "ECCENTRICITY": 0.0002352, "INCLINATION": 0.0114, "RA_OF_ASC_NODE": 42.1591, "ARG_OF_PERICENTER": 243.8824, "MEAN_ANOMALY": 249.5075, "EPHEMERIS_TYPE": 0, "CLASSIFICATION_TYPE": "U", "NORAD_CAT_ID": 36106, "ELEMENT_SET_NO": 999, "REV_AT_EPOCH": 3948, "BSTAR": 0, "MEAN_MOTION_DOT": -1.64e-06, "MEAN_MOTION_DDOT": 0}, "tle": {"line1": "1 36106U 09067A   25358.99065074 -.00000164  00000+0  00000+0 0  9991", "line2": "2 36106   0.0114  42.1591 0002352 243.8824 249.5075  1.00270584 39482"}}, "geometry": {"type": "Point", "coordinates": [-6.148527935530059, -0.017637993064837865]}}, {"type": "Feature", "properties": {"norad_id": 36131, "name": "DIRECTV 12", "group": "intelsat", "lat": 0.013330192307632965, "lon": 165.96633221765325, "alt_km": 35787.55084160698, "timestamp": "2025-12-25T11:37:44.089424+00:00", "meta": {"OBJECT_NAME": "DIRECTV 12", "OBJECT_ID": "2009-075A", "EPOCH": "2025-12-24T14:19:26.533632", "MEAN_MOTION": 1.00274235, "ECCENTRICITY": 5.749e-05, "INCLINATION": 0.0184, "RA_OF_ASC_NODE": 118.0209, "ARG_OF_PERICENTER": 200.6669, "MEAN_ANOMALY": 246.8321, "EPHEMERIS_TYPE": 0, "CLASSIFICATION_TYPE": "U", "NORAD_CAT_ID": 36131, "ELEMENT_SET_NO": 999, "REV_AT_EPOCH": 4480, "BSTAR": 0, "MEAN_MOTION_DOT": -8.3e-07, "MEAN_MOTION_DDOT": 0}, "tle": {"line1": "1 36131U 09075A   25358.59683488 -.00000083  00000+0  00000+0 0  9999", "line2": "2 36131   0.0184 118.0209 0000574 200.6669 246.8321  1.00274235 44801"}}, "geometry": {"type": "Point", "coordinates": [165.96633221765325, 0.013330192307632965]}}, {"type": "Feature", "properties": {"norad_id": 36397, "name": "INTELSAT 16 (IS-16)", "group": "intelsat", "lat": -0.00753817881298844, "lon": -167.53497897757168, "alt_km": 35784.26982252114, "timestamp": "2025-12-25T11:37:44.089436+00:00", "meta": {"OBJECT_NAME": "INTELSAT 16 (IS-16)", "OBJECT_ID": "2010-006A", "EPOCH": "2025-12-25T04:32:09.998304", "MEAN_MOTION": 1.00272308, "ECCENTRICITY": 0.0001944, "INCLINATION": 0.0098, "RA_OF_ASC_NODE": 346.2974, "ARG_OF_PERICENTER": 284.2377, "MEAN_ANOMALY": 175.2747, "EPHEMERIS_TYPE": 0, "CLASSIFICATION_TYPE": "U", "NORAD_CAT_ID": 36397, "ELEMENT_SET_NO": 999, "REV_AT_EPOCH": 5791, "BSTAR": 0, "MEAN_MOTION_DOT": -2.23e-06, "MEAN_MOTION_DDOT": 0}, "tle": {"line1": "1 36397U 10006A   25359.18900461 -.00000223  00000+0  00000+0 0  9994", "line2": "2 36397   0.0098 346.2974 0001944 284.2377 175.2747  1.00272308 57911"}}, "geometry": {"type": "Point", "coordinates": [-167.53497897757168, -0.00753817881298844]}}, {"type": "Feature", "properties": {"norad_id": 37185, "name": "XM-5", "group": "intelsat", "lat": -0.0411376379137116, "lon": 153.47318433076308, "alt_km": 35778.220755929746, "timestamp": "2025-12-25T11:37:44.089447+00:00", "meta": {"OBJECT_NAME": "XM-5", "OBJECT_ID": "2010-053A", "EPOCH": "2025-12-25T03:39:37.219104", "MEAN_MOTION": 1.00271551, "ECCENTRICITY": 0.000189, "INCLINATION": 0.0646, "RA_OF_ASC_NODE": 269.8229, "ARG_OF_PERICENTER": 238.358, "MEAN_ANOMALY": 245.4413, "EPHEMERIS_TYPE": 0, "CLASSIFICATION_TYPE": "U", "NORAD_CAT_ID": 37185, "ELEMENT_SET_NO": 999, "REV_AT_EPOCH": 5573, "BSTAR": 0, "MEAN_MOTION_DOT": -2e-08, "MEAN_MOTION_DDOT": 0}, "tle": {"line1": "1 37185U 10053A   25359.15251411 -.00000002  00000+0  00000+0 0  9998", "line2": "2 37185   0.0646 269.8229 0001890 238.3580 245.4413  1.00271551 55732"}}, "geometry": {"type": "Point", "coordinates": [153.47318433076308, -0.0411376379137116]}}, {"type": "Feature", "properties": {"norad_id": 37238, "name": "INTELSAT 17 (IS-17)", "group": "intelsat", "lat": -0.0013087379621362634, "lon": -25.31165533936736, "alt_km": 35779.061869826255, "timestamp": "2025-12-25T11:37:44.089459+00:00", "meta": {"OBJECT_NAME": "INTELSAT 17 (IS-17)", "OBJECT_ID": "2010-065B", "EPOCH": "2025-12-24T23:41:10.237920", "MEAN_MOTION": 1.00271402, "ECCENTRICITY": 0.0002679, "INCLINATION": 0.0089, "RA_OF_ASC_NODE": 124.505, "ARG_OF_PERICENTER": 159.0202, "MEAN_ANOMALY": 231.5148, "EPHEMERIS_TYPE": 0, "CLASSIFICATION_TYPE": "U", "NORAD_CAT_ID": 37238, "ELEMENT_SET_NO": 999, "REV_AT_EPOCH": 5150, "BSTAR": 0, "MEAN_MOTION_DOT": 2e-07, "MEAN_MOTION_DDOT": 0}, "tle": {"line1": "1 37238U 10065B   25358.98692405  .00000020  00000+0  00000+0 0  9991", "line2": "2 37238   0.0089 124.5050 0002679 159.0202 231.5148  1.00271402 51504"}}, "geometry": {"type": "Point", "coordinates": [-25.31165533936736, -0.0013087379621362634]}}, {"type": "Feature", "properties": {"norad_id": 37392, "name": "INTELSAT 28 (IS-28)", "group": "intelsat", "lat": 0.6221790102113278, "lon": -123.0499907292896, "alt_km": 35773.052740036735, "timestamp": "2025-12-25T11:37:44.089470+00:00", "meta": {"OBJECT_NAME": "INTELSAT 28 (IS-28)", "OBJECT_ID": "2011-016A", "EPOCH": "2025-12-24T23:13:12.914976", "MEAN_MOTION": 1.00272029, "ECCENTRICITY": 0.0003735, "INCLINATION": 1.3543, "RA_OF_ASC_NODE": 84.9231, "ARG_OF_PERICENTER": 187.1936, "MEAN_ANOMALY": 138.2165, "EPHEMERIS_TYPE": 0, "CLASSIFICATION_TYPE": "U", "NORAD_CAT_ID": 37392, "ELEMENT_SET_NO": 999, "REV_AT_EPOCH": 5153, "BSTAR": 0, "MEAN_MOTION_DOT": -2.04e-06, "MEAN_MOTION_DDOT": 0}, "tle": {"line1": "1 37392U 11016A   25358.96751059 -.00000204  00000+0  00000+0 0  9993", "line2": "2 37392   1.3543  84.9231 0003735 187.1936 138.2165  1.00272029 51535"}}, "geometry": {"type": "Point", "coordinates": [-123.0499907292896, 0.6221790102113278]}}]}